FLOCK 4H-9              
1 66712U 25276AY  25358.79823020  .00007173  00000+0  35658-3 0  9995
2 66712  97.4421  70.3791 0002804 206.5336 153.5755 15.17940141  3958
FLOCK 4H-10             
1 66713U 25276AZ  25358.15016542  .00012087  00000+0  60933-3 0  9993
2 66713  97.4392  69.7034 0003458 245.3697 114.7177 15.17294576  3855
FLOCK 4H-11             
1 66714U 25276BA  25358.80374203  .00012129  00000+0  60210-3 0  9992
2 66714  97.4412  70.3701 0002031 265.5369  94.5633 15.17835722  3951
FLOCK 4H-12             
1 66715U 25276BB  25358.83334491 -.00049164  00000+0 -24238-2 0  9991
2 66715  97.4391  70.4007 0002210 173.5246  30.9315 15.18130390  1307
FLOCK 4H-13             
1 66716U 25276BC  25358.79371748  .00002479  00000+0  12454-3 0  9997
2 66716  97.4403  70.3795 0002755 137.8443 222.3004 15.18200494  3959
FLOCK 4H-14             
1 66717U 25276BD  25358.79153463  .00006106  00000+0  30039-3 0  9990
2 66717  97.4411  70.3806 0001749 130.6623 229.4763 15.18368654  3206
FLOCK 4H-15             
1 66718U 25276BE  25358.81169147  .00006238  00000+0  31788-3 0  9998
2 66718  97.4419  70.3574 0003092 257.7586 102.3301 15.17123681  3956
FLOCK 4H-16             
1 66719U 25276BF  25358.15037944 -.00200754  00000+0 -10371-1 0  9999
2 66719  97.4433  69.7176 0007125 194.9870 165.1154 15.17223362  3851
FLOCK 4H-17             
1 66720U 25276BG  25358.33336806 -.00048418  00000+0 -23882-2 0  9999
2 66720  97.4437  69.9326 0002745 183.4874 170.4379 15.18107936  1301
FLOCK 4H-18             
1 66721U 25276BH  25358.81110404  .00006886  00000+0  35015-3 0  9990
2 66721  97.4378  70.3425 0002479 273.0043  87.0907 15.17159719  3958
FLOCK 4H-19             
1 66722U 25276BJ  25358.79284620  .00015022  00000+0  73516-3 0  9990
2 66722  97.4384  70.3685 0002560 148.4973 211.6415 15.18283455  3249
FLOCK 4H-20             
1 66723U 25276BK  25358.79214648  .00009958  00000+0  48804-3 0  9997
2 66723  97.4419  70.3840 0003011 163.6285 196.5047 15.18332398  3208
