CCSDS_OMM_VERS = 2.0
CREATION_DATE  = 
ORIGINATOR     = 

OBJECT_NAME    = FLOCK 4H-9
OBJECT_ID      = 2025-276AY
CENTER_NAME    = EARTH
REF_FRAME      = TEME
TIME_SYSTEM    = UTC
MEAN_ELEMENT_THEORY = SGP/SGP4

EPOCH          = 2025-12-24T19:09:27.089280
MEAN_MOTION    = 15.17940141
ECCENTRICITY   = .0002804
INCLINATION    = 97.4421
RA_OF_ASC_NODE = 70.3791
ARG_OF_PERICENTER = 206.5336
MEAN_ANOMALY   = 153.5755

EPHEMERIS_TYPE = 0
CLASSIFICATION_TYPE = U
NORAD_CAT_ID   = 66712
ELEMENT_SET_NO = 999
REV_AT_EPOCH   = 395
BSTAR          = .35658E-3
MEAN_MOTION_DOT = .7173E-4
MEAN_MOTION_DDOT = 0

CCSDS_OMM_VERS = 2.0
CREATION_DATE  = 
ORIGINATOR     = 

OBJECT_NAME    = FLOCK 4H-10
OBJECT_ID      = 2025-276AZ
CENTER_NAME    = EARTH
REF_FRAME      = TEME
TIME_SYSTEM    = UTC
MEAN_ELEMENT_THEORY = SGP/SGP4

EPOCH          = 2025-12-24T03:36:14.292288
MEAN_MOTION    = 15.17294576
ECCENTRICITY   = .00034586
INCLINATION    = 97.4392
RA_OF_ASC_NODE = 69.7034
ARG_OF_PERICENTER = 245.3697
MEAN_ANOMALY   = 114.7177

EPHEMERIS_TYPE = 0
CLASSIFICATION_TYPE = U
NORAD_CAT_ID   = 66713
ELEMENT_SET_NO = 999
REV_AT_EPOCH   = 385
BSTAR          = .60932999E-3
MEAN_MOTION_DOT = .12087E-3
MEAN_MOTION_DDOT = 0

CCSDS_OMM_VERS = 2.0
CREATION_DATE  = 
ORIGINATOR     = 

OBJECT_NAME    = FLOCK 4H-11
OBJECT_ID      = 2025-276BA
CENTER_NAME    = EARTH
REF_FRAME      = TEME
TIME_SYSTEM    = UTC
MEAN_ELEMENT_THEORY = SGP/SGP4

EPOCH          = 2025-12-24T19:17:23.311392
MEAN_MOTION    = 15.17835722
ECCENTRICITY   = .0002031
INCLINATION    = 97.4412
RA_OF_ASC_NODE = 70.3701
ARG_OF_PERICENTER = 265.5369
MEAN_ANOMALY   = 94.5633

EPHEMERIS_TYPE = 0
CLASSIFICATION_TYPE = U
NORAD_CAT_ID   = 66714
ELEMENT_SET_NO = 999
REV_AT_EPOCH   = 395
BSTAR          = .6021E-3
MEAN_MOTION_DOT = .12129E-3
MEAN_MOTION_DDOT = 0

CCSDS_OMM_VERS = 2.0
CREATION_DATE  = 
ORIGINATOR     = 

OBJECT_NAME    = FLOCK 4H-12
OBJECT_ID      = 2025-276BB
CENTER_NAME    = EARTH
REF_FRAME      = TEME
TIME_SYSTEM    = UTC
MEAN_ELEMENT_THEORY = SGP/SGP4

EPOCH          = 2025-12-24T20:00:01.000224
MEAN_MOTION    = 15.18130390
ECCENTRICITY   = .000221
INCLINATION    = 97.4391
RA_OF_ASC_NODE = 70.4007
ARG_OF_PERICENTER = 173.5246
MEAN_ANOMALY   = 30.9315

EPHEMERIS_TYPE = 0
CLASSIFICATION_TYPE = U
NORAD_CAT_ID   = 66715
ELEMENT_SET_NO = 999
REV_AT_EPOCH   = 130
BSTAR          = -.24238E-2
MEAN_MOTION_DOT = -.49164E-3
MEAN_MOTION_DDOT = 0

CCSDS_OMM_VERS = 2.0
CREATION_DATE  = 
ORIGINATOR     = 

OBJECT_NAME    = FLOCK 4H-13
OBJECT_ID      = 2025-276BC
CENTER_NAME    = EARTH
REF_FRAME      = TEME
TIME_SYSTEM    = UTC
MEAN_ELEMENT_THEORY = SGP/SGP4

EPOCH          = 2025-12-24T19:02:57.190272
MEAN_MOTION    = 15.18200494
ECCENTRICITY   = .0002755
INCLINATION    = 97.4403
RA_OF_ASC_NODE = 70.3795
ARG_OF_PERICENTER = 137.8443
MEAN_ANOMALY   = 222.3004

EPHEMERIS_TYPE = 0
CLASSIFICATION_TYPE = U
NORAD_CAT_ID   = 66716
ELEMENT_SET_NO = 999
REV_AT_EPOCH   = 395
BSTAR          = .12454E-3
MEAN_MOTION_DOT = .2479E-4
MEAN_MOTION_DDOT = 0

CCSDS_OMM_VERS = 2.0
CREATION_DATE  = 
ORIGINATOR     = 

OBJECT_NAME    = FLOCK 4H-14
OBJECT_ID      = 2025-276BD
CENTER_NAME    = EARTH
REF_FRAME      = TEME
TIME_SYSTEM    = UTC
MEAN_ELEMENT_THEORY = SGP/SGP4

EPOCH          = 2025-12-24T18:59:48.592032
MEAN_MOTION    = 15.18368654
ECCENTRICITY   = .0001749
INCLINATION    = 97.4411
RA_OF_ASC_NODE = 70.3806
ARG_OF_PERICENTER = 130.6623
MEAN_ANOMALY   = 229.4763

EPHEMERIS_TYPE = 0
CLASSIFICATION_TYPE = U
NORAD_CAT_ID   = 66717
ELEMENT_SET_NO = 999
REV_AT_EPOCH   = 320
BSTAR          = .30039E-3
MEAN_MOTION_DOT = .6106E-4
MEAN_MOTION_DDOT = 0

CCSDS_OMM_VERS = 2.0
CREATION_DATE  = 
ORIGINATOR     = 

OBJECT_NAME    = FLOCK 4H-15
OBJECT_ID      = 2025-276BE
CENTER_NAME    = EARTH
REF_FRAME      = TEME
TIME_SYSTEM    = UTC
MEAN_ELEMENT_THEORY = SGP/SGP4

EPOCH          = 2025-12-24T19:28:50.143008
MEAN_MOTION    = 15.17123681
ECCENTRICITY   = .0003092
INCLINATION    = 97.4419
RA_OF_ASC_NODE = 70.3574
ARG_OF_PERICENTER = 257.7586
MEAN_ANOMALY   = 102.3301

EPHEMERIS_TYPE = 0
CLASSIFICATION_TYPE = U
NORAD_CAT_ID   = 66718
ELEMENT_SET_NO = 999
REV_AT_EPOCH   = 395
BSTAR          = .31788E-3
MEAN_MOTION_DOT = .6238E-4
MEAN_MOTION_DDOT = 0

CCSDS_OMM_VERS = 2.0
CREATION_DATE  = 
ORIGINATOR     = 

OBJECT_NAME    = FLOCK 4H-16
OBJECT_ID      = 2025-276BF
CENTER_NAME    = EARTH
REF_FRAME      = TEME
TIME_SYSTEM    = UTC
MEAN_ELEMENT_THEORY = SGP/SGP4

EPOCH          = 2025-12-24T03:36:32.783616
MEAN_MOTION    = 15.17223362
ECCENTRICITY   = .00071256
INCLINATION    = 97.4433
RA_OF_ASC_NODE = 69.7176
ARG_OF_PERICENTER = 194.9870
MEAN_ANOMALY   = 165.1154

EPHEMERIS_TYPE = 0
CLASSIFICATION_TYPE = U
NORAD_CAT_ID   = 66719
ELEMENT_SET_NO = 999
REV_AT_EPOCH   = 385
BSTAR          = -.10371176E-1
MEAN_MOTION_DOT = -.200754E-2
MEAN_MOTION_DDOT = 0

CCSDS_OMM_VERS = 2.0
CREATION_DATE  = 
ORIGINATOR     = 

OBJECT_NAME    = FLOCK 4H-17
OBJECT_ID      = 2025-276BG
CENTER_NAME    = EARTH
REF_FRAME      = TEME
TIME_SYSTEM    = UTC
MEAN_ELEMENT_THEORY = SGP/SGP4

EPOCH          = 2025-12-24T08:00:03.000384
MEAN_MOTION    = 15.18107936
ECCENTRICITY   = .00027451
INCLINATION    = 97.4437
RA_OF_ASC_NODE = 69.9326
ARG_OF_PERICENTER = 183.4874
MEAN_ANOMALY   = 170.4379

EPHEMERIS_TYPE = 0
CLASSIFICATION_TYPE = U
NORAD_CAT_ID   = 66720
ELEMENT_SET_NO = 999
REV_AT_EPOCH   = 130
BSTAR          = -.23881973E-2
MEAN_MOTION_DOT = -.48418E-3
MEAN_MOTION_DDOT = 0

CCSDS_OMM_VERS = 2.0
CREATION_DATE  = 
ORIGINATOR     = 

OBJECT_NAME    = FLOCK 4H-18
OBJECT_ID      = 2025-276BH
CENTER_NAME    = EARTH
REF_FRAME      = TEME
TIME_SYSTEM    = UTC
MEAN_ELEMENT_THEORY = SGP/SGP4

EPOCH          = 2025-12-24T19:27:59.389056
MEAN_MOTION    = 15.17159719
ECCENTRICITY   = .0002479
INCLINATION    = 97.4378
RA_OF_ASC_NODE = 70.3425
ARG_OF_PERICENTER = 273.0043
MEAN_ANOMALY   = 87.0907

EPHEMERIS_TYPE = 0
CLASSIFICATION_TYPE = U
NORAD_CAT_ID   = 66721
ELEMENT_SET_NO = 999
REV_AT_EPOCH   = 395
BSTAR          = .35015E-3
MEAN_MOTION_DOT = .6886E-4
MEAN_MOTION_DDOT = 0

CCSDS_OMM_VERS = 2.0
CREATION_DATE  = 
ORIGINATOR     = 

OBJECT_NAME    = FLOCK 4H-19
OBJECT_ID      = 2025-276BJ
CENTER_NAME    = EARTH
REF_FRAME      = TEME
TIME_SYSTEM    = UTC
MEAN_ELEMENT_THEORY = SGP/SGP4

EPOCH          = 2025-12-24T19:01:41.911680
MEAN_MOTION    = 15.18283455
ECCENTRICITY   = .000256
INCLINATION    = 97.4384
RA_OF_ASC_NODE = 70.3685
ARG_OF_PERICENTER = 148.4973
MEAN_ANOMALY   = 211.6415

EPHEMERIS_TYPE = 0
CLASSIFICATION_TYPE = U
NORAD_CAT_ID   = 66722
ELEMENT_SET_NO = 999
REV_AT_EPOCH   = 324
BSTAR          = .73516E-3
MEAN_MOTION_DOT = .15022E-3
MEAN_MOTION_DDOT = 0

CCSDS_OMM_VERS = 2.0
CREATION_DATE  = 
ORIGINATOR     = 

OBJECT_NAME    = FLOCK 4H-20
OBJECT_ID      = 2025-276BK
CENTER_NAME    = EARTH
REF_FRAME      = TEME
TIME_SYSTEM    = UTC
MEAN_ELEMENT_THEORY = SGP/SGP4

EPOCH          = 2025-12-24T19:00:41.455872
MEAN_MOTION    = 15.18332398
ECCENTRICITY   = .0003011
INCLINATION    = 97.4419
RA_OF_ASC_NODE = 70.3840
ARG_OF_PERICENTER = 163.6285
MEAN_ANOMALY   = 196.5047

EPHEMERIS_TYPE = 0
CLASSIFICATION_TYPE = U
NORAD_CAT_ID   = 66723
ELEMENT_SET_NO = 999
REV_AT_EPOCH   = 320
BSTAR          = .48804E-3
MEAN_MOTION_DOT = .9958E-4
MEAN_MOTION_DDOT = 0

